{
  "type": "FeatureCollection",
  "features": [
    {
      "type": "Feature",
      "properties": {
        "norad_id": 42917,
        "name": "QZS-3 (QZSS/PRN 199)",
        "group": "gnss",
        "lat": 0.0027455848155127135,
        "lon": 121.20870394051981,
        "alt_km": 35794.16882692243,
        "timestamp": "2025-12-17T17:50:19.493791+00:00",
        "meta_object_name": "QZS-3 (QZSS/PRN 199)",
        "meta_object_id": "2017-048A",
        "meta_epoch": "2025-12-17T05:22:00.823296",
        "meta_mean_motion": 1.00267643,
        "meta_eccentricity": 0.00017834,
        "meta_inclination": 0.0265,
        "meta_ra_of_asc_node": 199.8718,
        "meta_arg_of_pericenter": 76.54,
        "meta_mean_anomaly": 17.2355,
        "meta_ephemeris_type": 0,
        "meta_classification_type": "U",
        "meta_norad_cat_id": 42917,
        "meta_element_set_no": 999,
        "meta_rev_at_epoch": 3043,
        "meta_bstar": 0,
        "meta_mean_motion_dot": 0,
        "meta_mean_motion_ddot": 0,
        "tle_line1": "1 42917U 17048A   25351.22362064  .00000000  00000+0  00000+0 0  9992",
        "tle_line2": "2 42917   0.0265 199.8718 0001783  76.5400  17.2355  1.00267643 30434"
      },
      "geometry": {
        "type": "Point",
        "coordinates": [
          121.20870394051981,
          0.0027455848155127135
        ]
      }
    },
    {
      "type": "Feature",
      "properties": {
        "norad_id": 42939,
        "name": "COSMOS 2522 (752)",
        "group": "gnss",
        "lat": 7.714560068787628,
        "lon": 14.283573829227436,
        "alt_km": 19119.51316231952,
        "timestamp": "2025-12-17T17:50:19.493803+00:00",
        "meta_object_name": "COSMOS 2522 (752)",
        "meta_object_id": "2017-055A",
        "meta_epoch": "2025-12-16T02:41:16.915776",
        "meta_mean_motion": 2.13102063,
        "meta_eccentricity": 0.00063883,
        "meta_inclination": 64.0761,
        "meta_ra_of_asc_node": 198.1142,
        "meta_arg_of_pericenter": 224.0896,
        "meta_mean_anomaly": 135.9399,
        "meta_ephemeris_type": 0,
        "meta_classification_type": "U",
        "meta_norad_cat_id": 42939,
        "meta_element_set_no": 999,
        "meta_rev_at_epoch": 6407,
        "meta_bstar": 0,
        "meta_mean_motion_dot": 1.09e-06,
        "meta_mean_motion_ddot": 0,
        "tle_line1": "1 42939U 17055A   25350.11200134  .00000109  00000+0  00000+0 0  9990",
        "tle_line2": "2 42939  64.0761 198.1142 0006388 224.0896 135.9399  2.13102063 64079"
      },
      "geometry": {
        "type": "Point",
        "coordinates": [
          14.283573829227436,
          7.714560068787628
        ]
      }
    },
    {
      "type": "Feature",
      "properties": {
        "norad_id": 42965,
        "name": "QZS-4 (QZSS/PRN 195)",
        "group": "gnss",
        "lat": 25.64300807965557,
        "lon": 131.18652811930144,
        "alt_km": 37861.325702680835,
        "timestamp": "2025-12-17T17:50:19.493815+00:00",
        "meta_object_name": "QZS-4 (QZSS/PRN 195)",
        "meta_object_id": "2017-062A",
        "meta_epoch": "2025-12-16T20:48:41.404032",
        "meta_mean_motion": 1.00252046,
        "meta_eccentricity": 0.07515882,
        "meta_inclination": 40.2238,
        "meta_ra_of_asc_node": 345.8181,
        "meta_arg_of_pericenter": 271.6391,
        "meta_mean_anomaly": 276.5319,
        "meta_ephemeris_type": 0,
        "meta_classification_type": "U",
        "meta_norad_cat_id": 42965,
        "meta_element_set_no": 999,
        "meta_rev_at_epoch": 2997,
        "meta_bstar": 0,
        "meta_mean_motion_dot": -3.46e-06,
        "meta_mean_motion_ddot": 0,
        "tle_line1": "1 42965U 17062A   25350.86714588 -.00000346  00000+0  00000+0 0  9996",
        "tle_line2": "2 42965  40.2238 345.8181 0751588 271.6391 276.5319  1.00252046 29970"
      },
      "geometry": {
        "type": "Point",
        "coordinates": [
          131.18652811930144,
          25.64300807965557
        ]
      }
    },
    {
      "type": "Feature",
      "properties": {
        "norad_id": 43001,
        "name": "BEIDOU-3 M1 (C19)",
        "group": "gnss",
        "lat": 50.5825831215371,
        "lon": 122.55595992951432,
        "alt_km": 21537.11372595463,
        "timestamp": "2025-12-17T17:50:19.493826+00:00",
        "meta_object_name": "BEIDOU-3 M1 (C19)",
        "meta_object_id": "2017-069A",
        "meta_epoch": "2025-12-17T02:31:31.300896",
        "meta_mean_motion": 1.86231373,
        "meta_eccentricity": 0.00093891,
        "meta_inclination": 56.5309,
        "meta_ra_of_asc_node": 69.0894,
        "meta_arg_of_pericenter": 302.653,
        "meta_mean_anomaly": 57.2803,
        "meta_ephemeris_type": 0,
        "meta_classification_type": "U",
        "meta_norad_cat_id": 43001,
        "meta_element_set_no": 999,
        "meta_rev_at_epoch": 5521,
        "meta_bstar": 0,
        "meta_mean_motion_dot": -7.5e-07,
        "meta_mean_motion_ddot": 0,
        "tle_line1": "1 43001U 17069A   25351.10522339 -.00000075  00000+0  00000+0 0  9993",
        "tle_line2": "2 43001  56.5309  69.0894 0009389 302.6530  57.2803  1.86231373 55214"
      },
      "geometry": {
        "type": "Point",
        "coordinates": [
          122.55595992951432,
          50.5825831215371
        ]
      }
    },
    {
      "type": "Feature",
      "properties": {
        "norad_id": 43002,
        "name": "BEIDOU-3 M2 (C20)",
        "group": "gnss",
        "lat": 52.023175870375795,
        "lon": -168.67480162615115,
        "alt_km": 21535.399098017962,
        "timestamp": "2025-12-17T17:50:19.493837+00:00",
        "meta_object_name": "BEIDOU-3 M2 (C20)",
        "meta_object_id": "2017-069B",
        "meta_epoch": "2025-12-17T01:02:46.646016",
        "meta_mean_motion": 1.86230935,
        "meta_eccentricity": 0.00064468,
        "meta_inclination": 56.5305,
        "meta_ra_of_asc_node": 69.1275,
        "meta_arg_of_pericenter": 330.7848,
        "meta_mean_anomaly": 29.2027,
        "meta_ephemeris_type": 0,
        "meta_classification_type": "U",
        "meta_norad_cat_id": 43002,
        "meta_element_set_no": 999,
        "meta_rev_at_epoch": 5520,
        "meta_bstar": 0,
        "meta_mean_motion_dot": -7.5e-07,
        "meta_mean_motion_ddot": 0,
        "tle_line1": "1 43002U 17069B   25351.04359544 -.00000075  00000+0  00000+0 0  9993",
        "tle_line2": "2 43002  56.5305  69.1275 0006446 330.7848  29.2027  1.86230935 55209"
      },
      "geometry": {
        "type": "Point",
        "coordinates": [
          -168.67480162615115,
          52.023175870375795
        ]
      }
    },
    {
      "type": "Feature",
      "properties": {
        "norad_id": 43055,
        "name": "GSAT0215 (GALILEO 19)",
        "group": "gnss",
        "lat": -9.400774267982651,
        "lon": -140.11312616552638,
        "alt_km": 23219.917023074187,
        "timestamp": "2025-12-17T17:50:19.493851+00:00",
        "meta_object_name": "GSAT0215 (GALILEO 19)",
        "meta_object_id": "2017-079A",
        "meta_epoch": "2025-12-11T21:30:24.060384",
        "meta_mean_motion": 1.704739,
        "meta_eccentricity": 0.00012658,
        "meta_inclination": 55.1303,
        "meta_ra_of_asc_node": 226.661,
        "meta_arg_of_pericenter": 350.6161,
        "meta_mean_anomaly": 9.46,
        "meta_ephemeris_type": 0,
        "meta_classification_type": "U",
        "meta_norad_cat_id": 43055,
        "meta_element_set_no": 999,
        "meta_rev_at_epoch": 4979,
        "meta_bstar": 0,
        "meta_mean_motion_dot": 1.3e-07,
        "meta_mean_motion_ddot": 0,
        "tle_line1": "1 43055U 17079A   25345.89611181  .00000013  00000+0  00000+0 0  9997",
        "tle_line2": "2 43055  55.1303 226.6610 0001265 350.6161   9.4600  1.70473900 49794"
      },
      "geometry": {
        "type": "Point",
        "coordinates": [
          -140.11312616552638,
          -9.400774267982651
        ]
      }
    },
    {
      "type": "Feature",
      "properties": {
        "norad_id": 43056,
        "name": "GSAT0216 (GALILEO 20)",
        "group": "gnss",
        "lat": 8.37383343801224,
        "lon": 40.624286320435964,
        "alt_km": 23227.67652951118,
        "timestamp": "2025-12-17T17:50:19.493862+00:00",
        "meta_object_name": "GSAT0216 (GALILEO 20)",
        "meta_object_id": "2017-079B",
        "meta_epoch": "2025-12-16T21:07:19.515072",
        "meta_mean_motion": 1.70474167,
        "meta_eccentricity": 0.00024195,
        "meta_inclination": 55.129,
        "meta_ra_of_asc_node": 226.5236,
        "meta_arg_of_pericenter": 322.2527,
        "meta_mean_anomaly": 37.829,
        "meta_ephemeris_type": 0,
        "meta_classification_type": "U",
        "meta_norad_cat_id": 43056,
        "meta_element_set_no": 999,
        "meta_rev_at_epoch": 4989,
        "meta_bstar": 0,
        "meta_mean_motion_dot": 5.3e-07,
        "meta_mean_motion_ddot": 0,
        "tle_line1": "1 43056U 17079B   25350.88008698  .00000053  00000+0  00000+0 0  9990",
        "tle_line2": "2 43056  55.1290 226.5236 0002419 322.2527  37.8290  1.70474167 49893"
      },
      "geometry": {
        "type": "Point",
        "coordinates": [
          40.624286320435964,
          8.37383343801224
        ]
      }
    }
  ]
}